{"type": "FeatureCollection", "features": [ {"type": "Feature", "properties": {"norad_id": 65304, "name": "DRAGON CRS-33", "group": "stations", "lat": 12.410388184505516, "lon": -53.1118548341917, "alt_km": 416.57000400685774, "timestamp": "2025-12-13T20:38:49.758567+00:00", "meta": {"OBJECT_NAME": "DRAGON CRS-33", "OBJECT_ID": "2025-186A", "EPOCH": "2025-12-13T02:54:59.414400", "MEAN_MOTION": 15.49559837, "ECCENTRICITY": 0.00032382, "INCLINATION": 51.6303, "RA_OF_ASC_NODE": 140.5889, "ARG_OF_PERICENTER": 241.9684, "MEAN_ANOMALY": 118.0978, "EPHEMERIS_TYPE": 0, "CLASSIFICATION_TYPE": "U", "NORAD_CAT_ID": 65304, "ELEMENT_SET_NO": 999, "REV_AT_EPOCH": 11, "BSTAR": 0.00029450217, "MEAN_MOTION_DOT": 0.0001613, "MEAN_MOTION_DDOT": 0}, "tle": {"line1": "1 65304U 25186A   25347.12152100  .00016130  00000+0  29450-3 0  9996", "line2": "2 65304  51.6303 140.5889 0003238 241.9684 118.0978 15.49559837   115"}}, "geometry": {"type": "Point", "coordinates": [-53.1118548341917, 12.410388184505516]}}, {"type": "Feature", "properties": {"norad_id": 65586, "name": "PROGRESS-MS 32", "group": "stations", "lat": 12.410387685504766, "lon": -53.111854413816985, "alt_km": 416.5700040578113, "timestamp": "2025-12-13T20:38:49.758577+00:00", "meta": {"OBJECT_NAME": "PROGRESS-MS 32", "OBJECT_ID": "2025-204A", "EPOCH": "2025-12-13T02:54:59.414400", "MEAN_MOTION": 15.49559837, "ECCENTRICITY": 0.00032382, "INCLINATION": 51.6303, "RA_OF_ASC_NODE": 140.5889, "ARG_OF_PERICENTER": 241.9684, "MEAN_ANOMALY": 118.0978, "EPHEMERIS_TYPE": 0, "CLASSIFICATION_TYPE": "U", "NORAD_CAT_ID": 65586, "ELEMENT_SET_NO": 999, "REV_AT_EPOCH": 27, "BSTAR": 0.00029450217, "MEAN_MOTION_DOT": 0.0001613, "MEAN_MOTION_DDOT": 0}, "tle": {"line1": "1 65586U 25204A   25347.12152100  .00016130  00000+0  29450-3 0  9999", "line2": "2 65586  51.6303 140.5889 0003238 241.9684 118.0978 15.49559837   274"}}, "geometry": {"type": "Point", "coordinates": [-53.111854413816985, 12.410387685504766]}}, {"type": "Feature", "properties": {"norad_id": 65616, "name": "CYGNUS NG-23", "group": "stations", "lat": 12.410387086702247, "lon": -53.111853909365934, "alt_km": 416.5700041189584, "timestamp": "2025-12-13T20:38:49.758589+00:00", "meta": {"OBJECT_NAME": "CYGNUS NG-23", "OBJECT_ID": "2025-208A", "EPOCH": "2025-12-13T02:54:59.414400", "MEAN_MOTION": 15.49559837, "ECCENTRICITY": 0.00032382, "INCLINATION": 51.6303, "RA_OF_ASC_NODE": 140.5889, "ARG_OF_PERICENTER": 241.9684, "MEAN_ANOMALY": 118.0978, "EPHEMERIS_TYPE": 0, "CLASSIFICATION_TYPE": "U", "NORAD_CAT_ID": 65616, "ELEMENT_SET_NO": 999, "REV_AT_EPOCH": 22, "BSTAR": 0.00029450217, "MEAN_MOTION_DOT": 0.0001613, "MEAN_MOTION_DDOT": 0}, "tle": {"line1": "1 65616U 25208A   25347.12152100  .00016130  00000+0  29450-3 0  9997", "line2": "2 65616  51.6303 140.5889 0003238 241.9684 118.0978 15.49559837   223"}}, "geometry": {"type": "Point", "coordinates": [-53.111853909365934, 12.410387086702247]}}, {"type": "Feature", "properties": {"norad_id": 65729, "name": "DRAGONFLY", "group": "stations", "lat": -38.97054680373405, "lon": -10.107891759529812, "alt_km": 353.19046637253996, "timestamp": "2025-12-13T20:38:49.758599+00:00", "meta": {"OBJECT_NAME": "DRAGONFLY", "OBJECT_ID": "1998-067XH", "EPOCH": "2025-12-12T16:11:54.021120", "MEAN_MOTION": 15.71879709, "ECCENTRICITY": 0.0006787, "INCLINATION": 51.6248, "RA_OF_ASC_NODE": 136.0967, "ARG_OF_PERICENTER": 276.9077, "MEAN_ANOMALY": 83.1148, "EPHEMERIS_TYPE": 0, "CLASSIFICATION_TYPE": "U", "NORAD_CAT_ID": 65729, "ELEMENT_SET_NO": 999, "REV_AT_EPOCH": 1315, "BSTAR": 0.001612676, "MEAN_MOTION_DOT": 0.00219639, "MEAN_MOTION_DDOT": 0}, "tle": {"line1": "1 65729U 98067XH  25346.67493080  .00219639  00000+0  16127-2 0  9994", "line2": "2 65729  51.6248 136.0967 0006787 276.9077  83.1148 15.71879709 13154"}}, "geometry": {"type": "Point", "coordinates": [-10.107891759529812, -38.97054680373405]}}, {"type": "Feature", "properties": {"norad_id": 65731, "name": "1998-067XK", "group": "stations", "lat": -38.242204676003176, "lon": -9.81081569134915, "alt_km": 371.2421285180253, "timestamp": "2025-12-13T20:38:49.758610+00:00", "meta": {"OBJECT_NAME": "1998-067XK", "OBJECT_ID": "1998-067XK", "EPOCH": "2025-12-13T02:48:43.499232", "MEAN_MOTION": 15.65831493, "ECCENTRICITY": 0.00050246, "INCLINATION": 51.6274, "RA_OF_ASC_NODE": 135.3174, "ARG_OF_PERICENTER": 248.4122, "MEAN_ANOMALY": 111.6339, "EPHEMERIS_TYPE": 0, "CLASSIFICATION_TYPE": "U", "NORAD_CAT_ID": 65731, "ELEMENT_SET_NO": 999, "REV_AT_EPOCH": 1320, "BSTAR": 0.0012217358, "MEAN_MOTION_DOT": 0.00128039, "MEAN_MOTION_DDOT": 0}, "tle": {"line1": "1 65731U 98067XK  25347.11717013  .00128039  00000+0  12217-2 0  9991", "line2": "2 65731  51.6274 135.3174 0005024 248.4122 111.6339 15.65831493 13202"}}, "geometry": {"type": "Point", "coordinates": [-9.81081569134915, -38.242204676003176]}}, {"type": "Feature", "properties": {"norad_id": 65732, "name": "RSP-03", "group": "stations", "lat": -27.66090182120171, "lon": -24.642457080438987, "alt_km": 362.3159376667636, "timestamp": "2025-12-13T20:38:49.758620+00:00", "meta": {"OBJECT_NAME": "RSP-03", "OBJECT_ID": "1998-067XL", "EPOCH": "2025-12-12T19:16:04.645920", "MEAN_MOTION": 15.68628297, "ECCENTRICITY": 0.00057622, "INCLINATION": 51.6253, "RA_OF_ASC_NODE": 136.2083, "ARG_OF_PERICENTER": 249.7501, "MEAN_ANOMALY": 110.2876, "EPHEMERIS_TYPE": 0, "CLASSIFICATION_TYPE": "U", "NORAD_CAT_ID": 65732, "ELEMENT_SET_NO": 999, "REV_AT_EPOCH": 1317, "BSTAR": 0.0013717805, "MEAN_MOTION_DOT": 0.00161855, "MEAN_MOTION_DDOT": 0}, "tle": {"line1": "1 65732U 98067XL  25346.80283155  .00161855  00000+0  13718-2 0  9992", "line2": "2 65732  51.6253 136.2083 0005762 249.7501 110.2876 15.68628297 13179"}}, "geometry": {"type": "Point", "coordinates": [-24.642457080438987, -27.66090182120171]}}, {"type": "Feature", "properties": {"norad_id": 65733, "name": "GHS-01", "group": "stations", "lat": 16.082741553987713, "lon": -63.772668172592255, "alt_km": 344.6797358575441, "timestamp": "2025-12-13T20:38:49.758640+00:00", "meta": {"OBJECT_NAME": "GHS-01", "OBJECT_ID": "1998-067XM", "EPOCH": "2025-12-12T16:33:54.337536", "MEAN_MOTION": 15.74787819, "ECCENTRICITY": 0.00071608, "INCLINATION": 51.6272, "RA_OF_ASC_NODE": 135.4559, "ARG_OF_PERICENTER": 280.4692, "MEAN_ANOMALY": 79.55, "EPHEMERIS_TYPE": 0, "CLASSIFICATION_TYPE": "U", "NORAD_CAT_ID": 65733, "ELEMENT_SET_NO": 999, "REV_AT_EPOCH": 1317, "BSTAR": 0.0017046622, "MEAN_MOTION_DOT": 0.00264493, "MEAN_MOTION_DDOT": 0}, "tle": {"line1": "1 65733U 98067XM  25346.69021224  .00264493  00000+0  17047-2 0  9998", "line2": "2 65733  51.6272 135.4559 0007160 280.4692  79.5500 15.74787819 13171"}}, "geometry": {"type": "Point", "coordinates": [-63.772668172592255, 16.082741553987713]}}, {"type": "Feature", "properties": {"norad_id": 65941, "name": "YOTSUBA-KULOVER", "group": "stations", "lat": -24.886908094102576, "lon": 112.77615106706672, "alt_km": 391.7490057472778, "timestamp": "2025-12-13T20:38:49.758651+00:00", "meta": {"OBJECT_NAME": "YOTSUBA-KULOVER", "OBJECT_ID": "1998-067XN", "EPOCH": "2025-12-12T17:06:14.736384", "MEAN_MOTION": 15.59447843, "ECCENTRICITY": 0.00014047, "INCLINATION": 51.6283, "RA_OF_ASC_NODE": 140.1142, "ARG_OF_PERICENTER": 246.8378, "MEAN_ANOMALY": 113.2466, "EPHEMERIS_TYPE": 0, "CLASSIFICATION_TYPE": "U", "NORAD_CAT_ID": 65941, "ELEMENT_SET_NO": 999, "REV_AT_EPOCH": 985, "BSTAR": 0.0010939393, "MEAN_MOTION_DOT": 0.0008876, "MEAN_MOTION_DDOT": 0}, "tle": {"line1": "1 65941U 98067XN  25346.71267056  .00088760  00000+0  10939-2 0  9991", "line2": "2 65941  51.6283 140.1142 0001404 246.8378 113.2466 15.59447843  9857"}}, "geometry": {"type": "Point", "coordinates": [112.77615106706672, -24.886908094102576]}}, {"type": "Feature", "properties": {"norad_id": 65942, "name": "BOTAN", "group": "stations", "lat": -36.794114607954974, "lon": 97.28577167504953, "alt_km": 381.72269474880886, "timestamp": "2025-12-13T20:38:49.758661+00:00", "meta": {"OBJECT_NAME": "BOTAN", "OBJECT_ID": "1998-067XP", "EPOCH": "2025-12-12T20:18:31.406976", "MEAN_MOTION": 15.62906067, "ECCENTRICITY": 0.00031064, "INCLINATION": 51.6286, "RA_OF_ASC_NODE": 138.7562, "ARG_OF_PERICENTER": 238.0921, "MEAN_ANOMALY": 121.9771, "EPHEMERIS_TYPE": 0, "CLASSIFICATION_TYPE": "U", "NORAD_CAT_ID": 65942, "ELEMENT_SET_NO": 999, "REV_AT_EPOCH": 988, "BSTAR": 0.0014970071, "MEAN_MOTION_DOT": 0.00139962, "MEAN_MOTION_DDOT": 0}, "tle": {"line1": "1 65942U 98067XP  25346.84619684  .00139962  00000+0  14970-2 0  9994", "line2": "2 65942  51.6286 138.7562 0003106 238.0921 121.9771 15.62906067  9888"}}, "geometry": {"type": "Point", "coordinates": [97.28577167504953, -36.794114607954974]}}, {"type": "Feature", "properties": {"norad_id": 65943, "name": "E-KAGAKU-1", "group": "stations", "lat": -24.479236017651694, "lon": 113.18619628974373, "alt_km": 393.57741979398725, "timestamp": "2025-12-13T20:38:49.758672+00:00", "meta": {"OBJECT_NAME": "E-KAGAKU-1", "OBJECT_ID": "1998-067XQ", "EPOCH": "2025-12-10T06:39:08.237952", "MEAN_MOTION": 15.5900432, "ECCENTRICITY": 0.00052507, "INCLINATION": 51.6298, "RA_OF_ASC_NODE": 152.3458, "ARG_OF_PERICENTER": 191.2269, "MEAN_ANOMALY": 168.8608, "EPHEMERIS_TYPE": 0, "CLASSIFICATION_TYPE": "U", "NORAD_CAT_ID": 65943, "ELEMENT_SET_NO": 999, "REV_AT_EPOCH": 947, "BSTAR": 0.0012588803, "MEAN_MOTION_DOT": 0.00100705, "MEAN_MOTION_DDOT": 0}, "tle": {"line1": "1 65943U 98067XQ  25344.27717868  .00100705  00000+0  12589-2 0  9990", "line2": "2 65943  51.6298 152.3458 0005250 191.2269 168.8608 15.59004320  9476"}}, "geometry": {"type": "Point", "coordinates": [113.18619628974373, -24.479236017651694]}}]}